0 BREEZE-M R/B
1 36102U 09065B   13283.49570759 -.00000120  00000-0  00000+0 0  4847
2 36102 021.3578 018.0729 5874196 126.2075 355.4114 02.20875482 31050
0 BREEZE-M R/B
1 36102U 09065B   13285.71965216 -.00000108  00000-0  00000+0 0  4857
2 36102 021.3597 017.6591 5874054 126.9489 323.7640 02.20875745 31102
0 BREEZE-M R/B
1 36102U 09065B   13288.47554233 -.00000079  00000-0  00000+0 0  4864
2 36102 021.3620 017.1469 5873830 127.8657 355.0920 02.20875977 31168
0 BREEZE-M R/B
1 36102U 09065B   13292.32195556 -.00000102  00000-0  00000+0 0  4870
2 36102 021.3648 016.4338 5873605 129.1415 173.5569 02.20875909 31259
0 BREEZE-M R/B
1 36102U 09065B   13294.84734500 -.00000134  00000-0  00000+0 0  4883
2 36102 021.3664 015.9660 5873494 129.9785 021.6186 02.20875674 31306
